{"type": "FeatureCollection", "features": [ {"type": "Feature", "properties": {"norad_id": 44543, "name": "BEIDOU-3 M23 (C45)", "group": "beidou", "lat": -8.28390080541648, "lon": -176.86246100690002, "alt_km": 21515.513259473904, "timestamp": "2025-12-08T17:43:05.196180+00:00", "meta": {"OBJECT_NAME": "BEIDOU-3 M23 (C45)", "OBJECT_ID": "2019-061B", "EPOCH": "2025-12-08T05:13:38.206848", "MEAN_MOTION": 1.86227543, "ECCENTRICITY": 0.00060833, "INCLINATION": 54.3988, "RA_OF_ASC_NODE": 189.137, "ARG_OF_PERICENTER": 22.991, "MEAN_ANOMALY": 337.9683, "EPHEMERIS_TYPE": 0, "CLASSIFICATION_TYPE": "U", "NORAD_CAT_ID": 44543, "ELEMENT_SET_NO": 999, "REV_AT_EPOCH": 4224, "BSTAR": 0, "MEAN_MOTION_DOT": 5.2e-07, "MEAN_MOTION_DDOT": 0}, "tle": {"line1": "1 44543U 19061B   25342.21780332  .00000052  00000+0  00000+0 0  9994", "line2": "2 44543  54.3988 189.1370 0006083  22.9910 337.9683  1.86227543 42247"}}, "geometry": {"type": "Point", "coordinates": [-176.86246100690002, -8.28390080541648]}}, {"type": "Feature", "properties": {"norad_id": 44709, "name": "BEIDOU-3 IGSO-3 (C40)", "group": "beidou", "lat": 4.782190043832567, "lon": 99.5903514026197, "alt_km": 35613.977700146395, "timestamp": "2025-12-08T17:43:05.196192+00:00", "meta": {"OBJECT_NAME": "BEIDOU-3 IGSO-3 (C40)", "OBJECT_ID": "2019-073A", "EPOCH": "2025-11-20T07:11:22.740000", "MEAN_MOTION": 1.00250097, "ECCENTRICITY": 0.0044538, "INCLINATION": 55.163, "RA_OF_ASC_NODE": 283.159, "ARG_OF_PERICENTER": 191.5856, "MEAN_ANOMALY": 168.2409, "EPHEMERIS_TYPE": 0, "CLASSIFICATION_TYPE": "U", "NORAD_CAT_ID": 44709, "ELEMENT_SET_NO": 999, "REV_AT_EPOCH": 2236, "BSTAR": 0, "MEAN_MOTION_DOT": -2.06e-06, "MEAN_MOTION_DDOT": 0}, "tle": {"line1": "1 44709U 19073A   25324.29956875 -.00000206  00000+0  00000+0 0  9998", "line2": "2 44709  55.1630 283.1590 0044538 191.5856 168.2409  1.00250097 22360"}}, "geometry": {"type": "Point", "coordinates": [99.5903514026197, 4.782190043832567]}}, {"type": "Feature", "properties": {"norad_id": 44793, "name": "BEIDOU-3 M22 (C44)", "group": "beidou", "lat": -3.481919777770369, "lon": 129.0292082434507, "alt_km": 21543.79676499266, "timestamp": "2025-12-08T17:43:05.196206+00:00", "meta": {"OBJECT_NAME": "BEIDOU-3 M22 (C44)", "OBJECT_ID": "2019-078A", "EPOCH": "2025-12-05T05:48:12.053952", "MEAN_MOTION": 1.86231816, "ECCENTRICITY": 0.00057288, "INCLINATION": 54.1154, "RA_OF_ASC_NODE": 306.6493, "ARG_OF_PERICENTER": 22.8633, "MEAN_ANOMALY": 337.1445, "EPHEMERIS_TYPE": 0, "CLASSIFICATION_TYPE": "U", "NORAD_CAT_ID": 44793, "ELEMENT_SET_NO": 999, "REV_AT_EPOCH": 4103, "BSTAR": 0, "MEAN_MOTION_DOT": -6.9e-07, "MEAN_MOTION_DDOT": 0}, "tle": {"line1": "1 44793U 19078A   25339.24180618 -.00000069  00000+0  00000+0 0  9998", "line2": "2 44793  54.1154 306.6493 0005728  22.8633 337.1445  1.86231816 41037"}}, "geometry": {"type": "Point", "coordinates": [129.0292082434507, -3.481919777770369]}}, {"type": "Feature", "properties": {"norad_id": 44794, "name": "BEIDOU-3 M21 (C43)", "group": "beidou", "lat": 54.037987004981666, "lon": 39.94785917355306, "alt_km": 21520.40378768824, "timestamp": "2025-12-08T17:43:05.196217+00:00", "meta": {"OBJECT_NAME": "BEIDOU-3 M21 (C43)", "OBJECT_ID": "2019-078B", "EPOCH": "2025-12-05T21:59:25.852416", "MEAN_MOTION": 1.86227538, "ECCENTRICITY": 0.00039607, "INCLINATION": 54.088, "RA_OF_ASC_NODE": 306.5908, "ARG_OF_PERICENTER": 10.7864, "MEAN_ANOMALY": 349.2048, "EPHEMERIS_TYPE": 0, "CLASSIFICATION_TYPE": "U", "NORAD_CAT_ID": 44794, "ELEMENT_SET_NO": 999, "REV_AT_EPOCH": 4105, "BSTAR": 0, "MEAN_MOTION_DOT": -6.9e-07, "MEAN_MOTION_DDOT": 0}, "tle": {"line1": "1 44794U 19078B   25339.91627144 -.00000069  00000+0  00000+0 0  9993", "line2": "2 44794  54.0880 306.5908 0003960  10.7864 349.2048  1.86227538 41052"}}, "geometry": {"type": "Point", "coordinates": [39.94785917355306, 54.037987004981666]}}, {"type": "Feature", "properties": {"norad_id": 44864, "name": "BEIDOU-3 M19 (C41)", "group": "beidou", "lat": -52.529902870255285, "lon": 9.058364363298105, "alt_km": 21484.91658356579, "timestamp": "2025-12-08T17:43:05.196229+00:00", "meta": {"OBJECT_NAME": "BEIDOU-3 M19 (C41)", "OBJECT_ID": "2019-090A", "EPOCH": "2025-12-02T22:27:31.551840", "MEAN_MOTION": 1.86231053, "ECCENTRICITY": 0.00175607, "INCLINATION": 56.3847, "RA_OF_ASC_NODE": 69.2872, "ARG_OF_PERICENTER": 284.9296, "MEAN_ANOMALY": 72.494, "EPHEMERIS_TYPE": 0, "CLASSIFICATION_TYPE": "U", "NORAD_CAT_ID": 44864, "ELEMENT_SET_NO": 999, "REV_AT_EPOCH": 4057, "BSTAR": 0, "MEAN_MOTION_DOT": -4.9e-07, "MEAN_MOTION_DDOT": 0}, "tle": {"line1": "1 44864U 19090A   25336.93578185 -.00000049  00000+0  00000+0 0  9992", "line2": "2 44864  56.3847  69.2872 0017560 284.9296  72.4940  1.86231053 40575"}}, "geometry": {"type": "Point", "coordinates": [9.058364363298105, -52.529902870255285]}}, {"type": "Feature", "properties": {"norad_id": 44865, "name": "BEIDOU-3 M20 (C42)", "group": "beidou", "lat": 14.455265337172124, "lon": 78.99564501265037, "alt_km": 21519.038633976088, "timestamp": "2025-12-08T17:43:05.196240+00:00", "meta": {"OBJECT_NAME": "BEIDOU-3 M20 (C42)", "OBJECT_ID": "2019-090B", "EPOCH": "2025-12-03T10:37:23.867040", "MEAN_MOTION": 1.86231029, "ECCENTRICITY": 0.00147135, "INCLINATION": 56.3867, "RA_OF_ASC_NODE": 69.3045, "ARG_OF_PERICENTER": 297.7194, "MEAN_ANOMALY": 129.1388, "EPHEMERIS_TYPE": 0, "CLASSIFICATION_TYPE": "U", "NORAD_CAT_ID": 44865, "ELEMENT_SET_NO": 999, "REV_AT_EPOCH": 4057, "BSTAR": 0, "MEAN_MOTION_DOT": -5e-07, "MEAN_MOTION_DDOT": 0}, "tle": {"line1": "1 44865U 19090B   25337.44263735 -.00000050  00000+0  00000+0 0  9994", "line2": "2 44865  56.3867  69.3045 0014713 297.7194 129.1388  1.86231029 40576"}}, "geometry": {"type": "Point", "coordinates": [78.99564501265037, 14.455265337172124]}}, {"type": "Feature", "properties": {"norad_id": 45344, "name": "BEIDOU-3 G2 (C60)", "group": "beidou", "lat": 0.8614995982812488, "lon": 63.54544341262482, "alt_km": 35793.32484673344, "timestamp": "2025-12-08T17:43:05.196252+00:00", "meta": {"OBJECT_NAME": "BEIDOU-3 G2 (C60)", "OBJECT_ID": "2020-017A", "EPOCH": "2025-12-08T03:42:39.421152", "MEAN_MOTION": 1.00273164, "ECCENTRICITY": 0.00043503, "INCLINATION": 2.4888, "RA_OF_ASC_NODE": 43.8186, "ARG_OF_PERICENTER": 265.0579, "MEAN_ANOMALY": 263.9588, "EPHEMERIS_TYPE": 0, "CLASSIFICATION_TYPE": "U", "NORAD_CAT_ID": 45344, "ELEMENT_SET_NO": 999, "REV_AT_EPOCH": 2134, "BSTAR": 0, "MEAN_MOTION_DOT": -1.39e-06, "MEAN_MOTION_DDOT": 0}, "tle": {"line1": "1 45344U 20017A   25342.15462293 -.00000139  00000+0  00000+0 0  9990", "line2": "2 45344   2.4888  43.8186 0004350 265.0579 263.9588  1.00273164 21343"}}, "geometry": {"type": "Point", "coordinates": [63.54544341262482, 0.8614995982812488]}}, {"type": "Feature", "properties": {"norad_id": 45807, "name": "BEIDOU-3 G3 (C61)", "group": "beidou", "lat": 0.9356522337306127, "lon": 94.0725848777191, "alt_km": 35780.903320946454, "timestamp": "2025-12-08T17:43:05.196264+00:00", "meta": {"OBJECT_NAME": "BEIDOU-3 G3 (C61)", "OBJECT_ID": "2020-040A", "EPOCH": "2025-12-08T07:16:51.079872", "MEAN_MOTION": 1.00275991, "ECCENTRICITY": 0.00059988, "INCLINATION": 1.9803, "RA_OF_ASC_NODE": 66.5831, "ARG_OF_PERICENTER": 306.2747, "MEAN_ANOMALY": 284.1701, "EPHEMERIS_TYPE": 0, "CLASSIFICATION_TYPE": "U", "NORAD_CAT_ID": 45807, "ELEMENT_SET_NO": 999, "REV_AT_EPOCH": 2015, "BSTAR": 0, "MEAN_MOTION_DOT": -3.52e-06, "MEAN_MOTION_DDOT": 0}, "tle": {"line1": "1 45807U 20040A   25342.30336898 -.00000352  00000+0  00000+0 0  9995", "line2": "2 45807   1.9803  66.5831 0005998 306.2747 284.1701  1.00275991 20151"}}, "geometry": {"type": "Point", "coordinates": [94.0725848777191, 0.9356522337306127]}}, {"type": "Feature", "properties": {"norad_id": 56564, "name": "BEIDOU-3 G4 (C62)", "group": "beidou", "lat": -0.30093171228800375, "lon": 143.55065459725355, "alt_km": 35775.68801984536, "timestamp": "2025-12-08T17:43:05.196276+00:00", "meta": {"OBJECT_NAME": "BEIDOU-3 G4 (C62)", "OBJECT_ID": "2023-066A", "EPOCH": "2025-12-08T05:48:19.884384", "MEAN_MOTION": 1.0027111, "ECCENTRICITY": 0.00030725, "INCLINATION": 0.825, "RA_OF_ASC_NODE": 301.6947, "ARG_OF_PERICENTER": 236.2465, "MEAN_ANOMALY": 146.4607, "EPHEMERIS_TYPE": 0, "CLASSIFICATION_TYPE": "U", "NORAD_CAT_ID": 56564, "ELEMENT_SET_NO": 999, "REV_AT_EPOCH": 948, "BSTAR": 0, "MEAN_MOTION_DOT": -1.08e-06, "MEAN_MOTION_DDOT": 0}, "tle": {"line1": "1 56564U 23066A   25342.24189681 -.00000108  00000+0  00000+0 0  9996", "line2": "2 56564   0.8250 301.6947 0003072 236.2465 146.4607  1.00271110  9485"}}, "geometry": {"type": "Point", "coordinates": [143.55065459725355, -0.30093171228800375]}}, {"type": "Feature", "properties": {"norad_id": 58654, "name": "BEIDOU-3 M28 (C50)", "group": "beidou", "lat": 31.65313247012178, "lon": 93.71270695329636, "alt_km": 21528.42634228945, "timestamp": "2025-12-08T17:43:05.196289+00:00", "meta": {"OBJECT_NAME": "BEIDOU-3 M28 (C50)", "OBJECT_ID": "2023-207A", "EPOCH": "2025-12-06T12:45:22.310208", "MEAN_MOTION": 1.86229594, "ECCENTRICITY": 0.00021908, "INCLINATION": 55.5792, "RA_OF_ASC_NODE": 68.8117, "ARG_OF_PERICENTER": 267.5881, "MEAN_ANOMALY": 92.402, "EPHEMERIS_TYPE": 0, "CLASSIFICATION_TYPE": "U", "NORAD_CAT_ID": 58654, "ELEMENT_SET_NO": 999, "REV_AT_EPOCH": 1325, "BSTAR": 0, "MEAN_MOTION_DOT": -4.7e-07, "MEAN_MOTION_DDOT": 0}, "tle": {"line1": "1 58654U 23207A   25340.53150822 -.00000047  00000+0  00000+0 0  9992", "line2": "2 58654  55.5792  68.8117 0002190 267.5881  92.4020  1.86229594 13257"}}, "geometry": {"type": "Point", "coordinates": [93.71270695329636, 31.65313247012178]}}]}